      "estimated_diameter_min": 1.4274305148,
      "estimated_diameter_max": 3.1918316641
    },
    "meters": {
      "estimated_diameter_min": 1427.4305147521,
      "estimated_diameter_max": 3191.8316641433
    },
    "miles": {
      "estimated_diameter_min": 0.8869639264,
      "estimated_diameter_max": 1.983311633
    },
    "feet": {
      "estimated_diameter_min": 4683.1711300194,
      "estimated_diameter_max": 10471.8889969878
    }
  },
  "is_potentially_hazardous_asteroid": true,
  "close_approach_data": [
    {
      "close_approach_date": "2137-06-15",
      "close_approach_date_full": "2137-Jun-15 10:22",
      "epoch_date_close_approach": 5284347720000,
      "relative_velocity": {
        "kilometers_per_second": "28.2663784245",
        "kilometers_per_hour": "101758.9623283404",
        "miles_per_hour": "63229.0618978513"
      },
      "miss_distance": {
        "astronomical": "0.0395594549",
        "lunar": "15.3886279561",
        "kilometers": "5918010.191401063",
        "miles": "3677281.0151501494"
      },
      "orbiting_body": "Earth"
    }
  ],
  "orbital_data": {
    "orbit_id": "126",
    "orbit_determination_date": "2021-08-12 06:00:59",
    "first_observation_date": "1949-07-01",
    "last_observation_date": "2021-08-11",
    "data_arc_in_days": 26339,
    "observations_used": 1078,
    "orbit_uncertainty": "0",
    "minimum_orbit_intersection": ".0340552",
    "jupiter_tisserand_invariant": "5.298",
    "epoch_osculation": "2459396.5",
    "eccentricity": ".8270025770484959",
    "semi_major_axis": "1.078113048682535",
    "inclination": "22.81198494640687",
    "ascending_node_longitude": "87.98055047960553",
    "orbital_period": "408.8790703816576",
    "perihelion_distance": ".1865107790724681",
    "perihelion_argument": "31.41889965374378",
    "aphelion_distance": "1.969715318292603",
    "perihelion_time": "2459600.110497151425",
    "mean_anomaly": "180.7299314535884",
    "mean_motion": ".8804559246917855",
    "equinox": "J2000",
    "orbit_class": {
      "orbit_class_type": "APO",
      "orbit_class_description": "Near-Earth asteroid orbits which cross the Earth\u2019s orbit similar to that of 1862 Apollo",
      "orbit_class_range": "a (semi-major axis) > 1.0 AU; q (perihelion) < 1.017 AU"
    }
  },
  "is_sentry_object": false
}

Nearest miss number: 9 with MIN VAL: 0.0403427626
{
  "links": {
    "self": "http://www.neowsapp.com/rest/v1/neo/2001862?api_key=6aGRFDDOVzBiRf032kKyBbHRhOempO7kgnjHBcZy"
  },
  "id": "2001862",
  "neo_reference_id": "2001862",
  "name": "1862 Apollo (1932 HA)",
  "name_limited": "Apollo",
  "designation": "1862",
  "nasa_jpl_url": "http://ssd.jpl.nasa.gov/sbdb.cgi?sstr=2001862",
  "absolute_magnitude_h": 16.1,
  "estimated_diameter": {
    "kilometers": {
      "estimated_diameter_min": 1.6016033798,
      "estimated_diameter_max": 3.5812940302
    },
    "meters": {
      "estimated_diameter_min": 1601.6033797856,
      "estimated_diameter_max": 3581.2940301941
    },
    "miles": {
      "estimated_diameter_min": 0.9951898937,
      "estimated_diameter_max": 2.2253122528
    },
    "feet": {
      "estimated_diameter_min": 5254.6044325359,
      "estimated_diameter_max": 11749.652706022
    }
  },
  "is_potentially_hazardous_asteroid": true,
  "close_approach_data": [
    {
      "close_approach_date": "2152-05-14",
      "close_approach_date_full": "2152-May-14 23:26",
      "epoch_date_close_approach": 5755015560000,
      "relative_velocity": {
        "kilometers_per_second": "16.6828770825",
        "kilometers_per_hour": "60058.357496834",
        "miles_per_hour": "37317.9277457411"
      },
      "miss_distance": {
        "astronomical": "0.0403427626",
        "lunar": "15.6933346514",
        "kilometers": "6035191.354875662",
        "miles": "3750094.0137496556"
      },
      "orbiting_body": "Earth"
    }
  ],
  "orbital_data": {
    "orbit_id": "356",
    "orbit_determination_date": "2021-08-24 15:54:23",
    "first_observation_date": "1930-12-13",
    "last_observation_date": "2021-07-01",
    "data_arc_in_days": 33073,
    "observations_used": 1923,
    "orbit_uncertainty": "0",
    "minimum_orbit_intersection": ".0260206",
    "jupiter_tisserand_invariant": "4.414",
    "epoch_osculation": "2459396.5",
    "eccentricity": ".5600025048004157",
    "semi_major_axis": "1.470258425675975",
    "inclination": "6.355278839294912",
    "ascending_node_longitude": "35.61184033173579",
    "orbital_period": "651.1618408183723",
    "perihelion_distance": ".6469100245935131",
    "perihelion_argument": "286.0053740681718",
    "aphelion_distance": "2.293606826758436",
    "perihelion_time": "2459491.589739453630",
    "mean_anomaly": "307.428881642874",
    "mean_motion": ".5528579493349247",
    "equinox": "J2000",
    "orbit_class": {
      "orbit_class_type": "APO",
      "orbit_class_description": "Near-Earth asteroid orbits which cross the Earth\u2019s orbit similar to that of 1862 Apollo",
      "orbit_class_range": "a (semi-major axis) > 1.0 AU; q (perihelion) < 1.017 AU"
    }
  },
  "is_sentry_object": false
}

Nearest miss number: 10 with MIN VAL: 0.0424822206
{
  "links": {
    "self": "http://www.neowsapp.com/rest/v1/neo/2001566?api_key=6aGRFDDOVzBiRf032kKyBbHRhOempO7kgnjHBcZy"
  },
  "id": "2001566",
  "neo_reference_id": "2001566",
  "name": "1566 Icarus (1949 MA)",
  "name_limited": "Icarus",
  "designation": "1566",
  "nasa_jpl_url": "http://ssd.jpl.nasa.gov/sbdb.cgi?sstr=2001566",
  "absolute_magnitude_h": 16.35,
  "estimated_diameter": {
    "kilometers": {
      "estimated_diameter_min": 1.4274305148,
      "estimated_diameter_max": 3.1918316641
    },
    "meters": {
      "estimated_diameter_min": 1427.4305147521,
      "estimated_diameter_max": 3191.8316641433
    },
    "miles": {
      "estimated_diameter_min": 0.8869639264,
      "estimated_diameter_max": 1.983311633
    },
    "feet": {
      "estimated_diameter_min": 4683.1711300194,
      "estimated_diameter_max": 10471.8889969878
    }
  },
  "is_potentially_hazardous_asteroid": true,
  "close_approach_data": [
    {
      "close_approach_date": "1968-06-14",
      "close_approach_date_full": "1968-Jun-14 20:39",
      "epoch_date_close_approach": -48828060000,
      "relative_velocity": {
        "kilometers_per_second": "29.6050248092",
        "kilometers_per_hour": "106578.0893130376",
        "miles_per_hour": "66223.4799956483"
      },
      "miss_distance": {
        "astronomical": "0.0424822206",
        "lunar": "16.5255838134",
        "kilometers": "6355249.714630122",
        "miles": "3948969.0565428036"
      },
      "orbiting_body": "Earth"
    }
  ],
  "orbital_data": {
    "orbit_id": "126",
    "orbit_determination_date": "2021-08-12 06:00:59",
    "first_observation_date": "1949-07-01",
    "last_observation_date": "2021-08-11",
    "data_arc_in_days": 26339,
    "observations_used": 1078,
    "orbit_uncertainty": "0",
    "minimum_orbit_intersection": ".0340552",
    "jupiter_tisserand_invariant": "5.298",
    "epoch_osculation": "2459396.5",
    "eccentricity": ".8270025770484959",
    "semi_major_axis": "1.078113048682535",
    "inclination": "22.81198494640687",
    "ascending_node_longitude": "87.98055047960553",
    "orbital_period": "408.8790703816576",
    "perihelion_distance": ".1865107790724681",
    "perihelion_argument": "31.41889965374378",
    "aphelion_distance": "1.969715318292603",
    "perihelion_time": "2459600.110497151425",
    "mean_anomaly": "180.7299314535884",
    "mean_motion": ".8804559246917855",
    "equinox": "J2000",
    "orbit_class": {
      "orbit_class_type": "APO",
      "orbit_class_description": "Near-Earth asteroid orbits which cross the Earth\u2019s orbit similar to that of 1862 Apollo",
      "orbit_class_range": "a (semi-major axis) > 1.0 AU; q (perihelion) < 1.017 AU"
    }
  },
  "is_sentry_object": false
}
